NORAD_CAT_ID,OBJECT_NAME,OBJECT_TYPE,EPOCH,MEAN_MOTION,ECCENTRICITY,INCLINATION,RA_OF_ASC_NODE,ARG_OF_PERICENTER,MEAN_ANOMALY,BSTAR,MEAN_MOTION_DOT,MEAN_MOTION_DDOT,TLE_LINE0,TLE_LINE1,TLE_LINE2,SEMIMAJOR_AXIS,PERIOD,APOGEE,PERIGEE,DECAYED
49131.0,STARLINK-3096,PAYLOAD,2024-05-09 10:10:27,14.98332551,0.000332,69.9987,141.906,271.2843,88.7936,9.2904e-05,1.016e-05,0.0,0 STARLINK-3096,1 49131U 21082B   24130.42392808  .00001016  00000-0  92904-4 0  9993,2 49131  69.9987 141.9060 0003320 271.2843  88.7936 14.98332551146715,6950.185,96.107,574.357,569.743,0.0
49131.0,STARLINK-3096,PAYLOAD,2024-05-09 18:11:07,14.98332611,0.0003312,69.9988,141.0643,271.0233,89.0546,8.2336e-05,8.9e-06,0.0,0 STARLINK-3096,1 49131U 21082B   24130.75772911  .00000890  00000-0  82336-4 0  9993,2 49131  69.9988 141.0643 0003312 271.0233  89.0546 14.98332611146769,6950.185,96.107,574.352,569.748,0.0
49131.0,STARLINK-3096,PAYLOAD,2024-05-10 05:24:04,14.9832984,0.0003281,69.9988,139.8861,270.6971,89.3812,1.2383e-05,5.5e-07,0.0,0 STARLINK-3096,1 49131U 21082B   24131.22505264  .00000055  00000-0  12383-4 0  9999,2 49131  69.9988 139.8861 0003281 270.6971  89.3812 14.98329840146832,6950.193,96.107,574.339,569.778,0.0
49131.0,STARLINK-3096,PAYLOAD,2024-05-10 10:12:28,14.98330387,0.0003281,69.9988,139.381,270.532,89.5463,1.9027e-05,1.34e-06,0.0,0 STARLINK-3096,1 49131U 21082B   24131.42533194  .00000134  00000-0  19027-4 0  9994,2 49131  69.9988 139.3810 0003281 270.5320  89.5463 14.98330387146863,6950.192,96.107,574.337,569.776,0.0
49131.0,STARLINK-3096,PAYLOAD,2024-05-10 18:13:08,14.98331198,0.0003284,69.9988,138.5395,270.5787,89.4996,3.2965e-05,3e-06,0.0,0 STARLINK-3096,1 49131U 21082B   24131.75913134  .00000300  00000-0  32965-4 0  9997,2 49131  69.9988 138.5395 0003284 270.5787  89.4996 14.98331198146919,6950.189,96.107,574.337,569.772,0.0
49131.0,STARLINK-3096,PAYLOAD,2024-05-11 05:26:05,14.98334844,0.0003315,69.9986,137.3611,270.3998,89.6781,8.2264e-05,8.89e-06,0.0,0 STARLINK-3096,1 49131U 21082B   24132.22644880  .00000889  00000-0  82264-4 0  9998,2 49131  69.9986 137.3611 0003315 270.3998  89.6781 14.98334844146984,6950.178,96.107,574.347,569.739,0.0
49131.0,STARLINK-3096,PAYLOAD,2024-05-11 10:14:28,14.98356651,0.00033,69.9984,136.8563,268.8288,91.2493,0.00034863,4.072e-05,0.0,0 STARLINK-3096,1 49131U 21082B   24132.42671472  .00004072  00000-0  34863-3 0  9996,2 49131  69.9984 136.8563 0003300 268.8288  91.2493 14.98356651147014,6950.11,96.105,574.269,569.682,0.0
49131.0,STARLINK-3096,PAYLOAD,2024-05-12 05:28:05,14.98337504,0.0003065,70.0004,134.8385,263.7972,96.2838,0.00019099,2.187e-05,0.0,0 STARLINK-3096,1 49131U 21082B   24133.22784177  .00002187  00000-0  19099-3 0  9991,2 49131  70.0004 134.8385 0003065 263.7972  96.2838 14.98337504147139,6950.17,96.107,574.165,569.904,0.0
49131.0,STARLINK-3096,PAYLOAD,2024-05-12 10:16:29,14.98333945,0.0003155,69.9998,134.3316,271.4662,88.6136,0.00010527,1.163e-05,0.0,0 STARLINK-3096,1 49131U 21082B   24133.42812429  .00001163  00000-0  10527-3 0  9995,2 49131  69.9998 134.3316 0003155 271.4662  88.6136 14.98333945147163,6950.181,96.107,574.238,569.853,0.0
49131.0,STARLINK-3096,PAYLOAD,2024-05-13 05:30:09,14.98269865,0.0003245,69.9995,132.314,261.7288,98.3503,0.00093822,0.00011102,0.0,0 STARLINK-3096,1 49131U 21082B   24134.22927104  .00011102  00000-0  93822-3 0  9994,2 49131  69.9995 132.3140 0003245 261.7288  98.3503 14.98269865147287,6950.379,96.111,574.499,569.988,0.0
49131.0,STARLINK-3096,PAYLOAD,2024-05-13 10:18:32,14.98322443,0.0002891,69.9993,131.8087,264.2669,95.816,-0.00012999,-1.643e-05,0.0,0 STARLINK-3096,1 49131U 21082B   24134.42953759 -.00001643  00000-0 -12999-3 0  9998,2 49131  69.9993 131.8087 0002891 264.2669  95.8160 14.98322443147313,6950.216,96.107,574.091,570.072,0.0
49131.0,STARLINK-3096,PAYLOAD,2024-05-13 23:07:36,14.9832642,0.0003149,69.9987,130.4594,274.8402,85.2398,4.2042e-06,-4.3e-07,0.0,0 STARLINK-3096,1 49131U 21082B   24134.96361249 -.00000043  00000-0  42042-5 0  9990,2 49131  69.9987 130.4594 0003149 274.8402  85.2398 14.98326420147396,6950.204,96.107,574.258,569.88,0.0
49131.0,STARLINK-3096,PAYLOAD,2024-05-14 05:32:07,14.98333686,0.0003086,69.9989,129.7873,269.1714,90.9091,8.4708e-05,9.18e-06,0.0,0 STARLINK-3096,1 49131U 21082B   24135.23064578  .00000918  00000-0  84708-4 0  9990,2 49131  69.9989 129.7873 0003086 269.1714  90.9091 14.98333686147432,6950.181,96.107,574.191,569.902,0.0
49131.0,STARLINK-3096,PAYLOAD,2024-05-14 10:20:31,14.98335211,0.0003058,69.9989,129.2822,270.0362,90.0446,0.00010381,1.146e-05,0.0,0 STARLINK-3096,1 49131U 21082B   24135.43092418  .00001146  00000-0  10381-3 0  9995,2 49131  69.9989 129.2822 0003058 270.0362  90.0446 14.98335211147464,6950.177,96.107,574.167,569.916,0.0
49131.0,STARLINK-3096,PAYLOAD,2024-05-14 16:45:04,14.98330504,0.0002862,69.9997,128.6093,269.2645,90.8186,0.00010492,1.159e-05,0.0,0 STARLINK-3096,1 49131U 21082B   24135.69796773  .00001159  00000-0  10492-3 0  9995,2 49131  69.9997 128.6093 0002862 269.2645  90.8186 14.98330504147506,6950.191,96.107,574.045,570.067,0.0
49131.0,STARLINK-3096,PAYLOAD,2024-05-15 05:34:09,14.98326787,0.0002983,69.9992,127.2619,268.7118,91.3699,0.00017253,1.966e-05,0.0,0 STARLINK-3096,1 49131U 21082B   24136.23204875  .00001966  00000-0  17253-3 0  9991,2 49131  69.9992 127.2619 0002983 268.7118  91.3699 14.98326787147584,6950.203,96.107,574.141,569.995,0.0
49131.0,STARLINK-3096,PAYLOAD,2024-05-15 08:46:25,14.98325918,0.0002965,69.999,126.925,267.2164,92.8656,0.00017642,2.012e-05,0.0,0 STARLINK-3096,1 49131U 21082B   24136.36556947  .00002012  00000-0  17642-3 0  9990,2 49131  69.9990 126.9250 0002965 267.2164  92.8656 14.98325918147601,6950.206,96.107,574.131,570.01,0.0
49131.0,STARLINK-3096,PAYLOAD,2024-05-16 05:36:10,14.9833287,0.0003133,69.9987,124.7367,268.5808,91.4992,-1.9978e-05,-3.31e-06,0.0,0 STARLINK-3096,1 49131U 21082B   24137.23345002 -.00000331  00000-0 -19978-4 0  9994,2 49131  69.9987 124.7367 0003133 268.5808  91.4992 14.98332870147736,6950.184,96.107,574.227,569.872,0.0
49131.0,STARLINK-3096,PAYLOAD,2024-05-16 08:48:25,14.98335719,0.0003074,69.9987,124.3996,268.0563,92.0244,-1.1788e-06,-1.07e-06,0.0,0 STARLINK-3096,1 49131U 21082B   24137.36696736 -.00000107  00000-0 -11788-5 0  9994,2 49131  69.9987 124.3996 0003074 268.0563  92.0244 14.98335719147751,6950.175,96.107,574.177,569.904,0.0
49131.0,STARLINK-3096,PAYLOAD,2024-05-16 16:49:06,14.98334224,0.000311,69.9987,123.5574,268.3318,91.7485,3.5844e-05,3.35e-06,0.0,0 STARLINK-3096,1 49131U 21082B   24137.70076658  .00000335  00000-0  35844-4 0  9996,2 49131  69.9987 123.5574 0003110 268.3318  91.7485 14.98334224147805,6950.18,96.107,574.206,569.883,0.0
49131.0,STARLINK-3096,PAYLOAD,2024-05-17 05:38:10,14.98336314,0.0003151,69.9986,122.2117,269.371,90.7088,5.6067e-05,5.76e-06,0.0,0 STARLINK-3096,1 49131U 21082B   24138.23484282  .00000576  00000-0  56067-4 0  9998,2 49131  69.9986 122.2117 0003151 269.3710  90.7088 14.98336314147883,6950.173,96.107,574.228,569.848,0.0
49131.0,STARLINK-3096,PAYLOAD,2024-05-17 08:50:26,14.98338303,0.0003122,69.9986,121.875,269.2477,90.8325,7.8107e-05,8.39e-06,0.0,0 STARLINK-3096,1 49131U 21082B   24138.36836044  .00000839  00000-0  78107-4 0  9990,2 49131  69.9986 121.8750 0003122 269.2477  90.8325 14.98338303147906,6950.167,96.106,574.202,569.862,0.0
49131.0,STARLINK-3096,PAYLOAD,2024-05-17 16:51:07,14.98330875,0.0003062,69.9987,121.033,269.7029,90.3779,1.8174e-05,1.24e-06,0.0,0 STARLINK-3096,1 49131U 21082B   24138.70216582  .00000124  00000-0  18174-4 0  9992,2 49131  69.9987 121.0330 0003062 269.7029  90.3779 14.98330875147953,6950.19,96.107,574.183,569.927,0.0
49131.0,STARLINK-3096,PAYLOAD,2024-05-18 05:40:11,14.98332254,0.0003045,69.9986,119.6868,269.8148,90.2662,5.3854e-05,5.5e-06,0.0,0 STARLINK-3096,1 49131U 21082B   24139.23624418  .00000550  00000-0  53854-4 0  9999,2 49131  69.9986 119.6868 0003045 269.8148  90.2662 14.98332254148038,6950.186,96.107,574.167,569.935,0.0
49131.0,STARLINK-3096,PAYLOAD,2024-05-18 08:52:27,14.98333035,0.0003047,69.9987,119.3501,269.9461,90.1349,5.9337e-05,6.15e-06,0.0,0 STARLINK-3096,1 49131U 21082B   24139.36976337  .00000615  00000-0  59337-4 0  9997,2 49131  69.9987 119.3501 0003047 269.9461  90.1349 14.98333035148052,6950.184,96.107,574.166,569.931,0.0
49131.0,STARLINK-3096,PAYLOAD,2024-05-19 04:06:02,14.98348013,0.0002966,69.9993,117.3305,272.1518,87.9301,0.00016909,1.926e-05,0.0,0 STARLINK-3096,1 49131U 21082B   24140.17086684  .00001926  00000-0  16909-3 0  9998,2 49131  69.9993 117.3305 0002966 272.1518  87.9301 14.98348013148174,6950.137,96.106,574.064,569.941,0.0
49131.0,STARLINK-3096,PAYLOAD,2024-05-19 08:54:25,14.98360714,0.0002926,69.999,116.8252,270.929,89.1534,0.00028108,3.265e-05,0.0,0 STARLINK-3096,1 49131U 21082B   24140.37113322  .00003265  00000-0  28108-3 0  9992,2 49131  69.9990 116.8252 0002926 270.9290  89.1534 14.98360714148203,6950.098,96.105,573.997,569.929,0.0
49131.0,STARLINK-3096,PAYLOAD,2024-05-20 04:08:05,14.9832432,0.0002897,69.9989,114.8056,261.5846,98.4985,7.2917e-06,-6e-08,0.0,0 STARLINK-3096,1 49131U 21082B   24141.17228271 -.00000006  00000-0  72917-5 0  9991,2 49131  69.9989 114.8056 0002897 261.5846  98.4985 14.98324320148320,6950.21,96.107,574.089,570.062,0.0
49131.0,STARLINK-3096,PAYLOAD,2024-05-20 07:20:21,14.98323413,0.0002928,69.999,114.4701,264.2831,95.7994,-3.0577e-06,-1.29e-06,0.0,0 STARLINK-3096,1 49131U 21082B   24141.30580537 -.00000129  00000-0 -30577-5 0  9995,2 49131  69.9990 114.4701 0002928 264.2831  95.7994 14.98323413148348,6950.213,96.107,574.113,570.043,0.0
49131.0,STARLINK-3096,PAYLOAD,2024-05-21 04:10:06,14.98329042,0.0002892,69.9989,112.2815,265.3867,94.6962,-0.00025785,-3.168e-05,0.0,0 STARLINK-3096,1 49131U 21082B   24142.17368838 -.00003168  00000-0 -25785-3 0  9998,2 49131  69.9989 112.2815 0002892 265.3867  94.6962 14.98329042148470,6950.196,96.107,574.071,570.051,0.0
